1 32007U 07034C   07304.63644551  .00215637 -84902-6  85953-3 0  9991
2 32007 025.8861 028.0164 2839021 101.9801 290.9052 09.90248251  8634
1 32007U 07034C   07305.03977194  .00215577 -85541-6  85935-3 0  9991
2 32007 025.8860 026.8093 2838171 104.0253 288.8456 09.90421669  8674
1 32007U 07034C   07305.54383820  .00204344 -86471-6  82240-3 0  9993
2 32007 025.8839 025.3039 2836972 106.5594 286.2174 09.90603075  8724
1 32007U 07034C   07306.14854034  .00203764 -87697-6  81985-3 0  9991
2 32007 025.8848 023.4955 2835784 109.6147 282.9571 09.90847778  8788
1 32007U 07034C   07306.55160035  .00194752 -88581-6  78290-3 0  9991
2 32007 025.8858 022.2942 2835148 111.6550 280.7380 09.90983193  8828
1 32007U 07034C   07307.15602475  .00194288 -90108-6  78254-3 0  9999
2 32007 025.8861 020.4780 2833944 114.7151 277.3034 09.91216523  8886
1 32007U 07034C   07307.55889716 +.00185319 -91240-6 +74950-3 0  9990
2 32007 025.8845 019.2744 2833184 116.7592 274.9409 09.91343944008923
1 32007U 07034C   07307.65960556  .00185317 -91531-6  74962-3 0  9997
2 32007 025.8844 018.9721 2832997 117.2708 274.3596 09.91381185  8930
1 32007U 07034C   07308.46507460  .00182821 -94005-6  74179-3 0  9994
2 32007 025.8850 016.5524 2831476 121.3598 269.4720 09.91671481  9011
1 32007U 07034C   07308.66639875  .00182809 -94674-6  74208-3 0  9993
2 32007 025.8850 015.9478 2831102 122.3831 268.2291 09.91744893  9039
1 32007U 07034C   07309.16962239  .00182735 -96418-6  74211-3 0  9992
2 32007 025.8851 014.4360 2830191 124.9406 265.0451 09.91928195  9084
1 32007U 07034C   07309.37087942  .00180600 -97153-6  73376-3 0  9991
2 32007 025.8846 013.8321 2829848 125.9664 263.7323 09.91995353  9108
1 32007U 07034C   07309.57212316  .00180641 -97899-6  73376-3 0  9990
2 32007 025.8846 013.2281 2829500 126.9893 262.4368 09.92068086  9129
1 32007U 07034C   07310.17573399  .00181719 -10020-5  73674-3 0  9997
2 32007 025.8864 011.4113 2828474 130.0556 258.4594 09.92290515  9180
1 32007U 07034C   07310.37689438  .00181980 -10097-5  73549-3 0  9996
2 32007 025.8887 010.8092 2828218 131.0786 257.0786 09.92363758  9207
